{
    "links": {
        "self": "http://www.neowsapp.com/rest/v1/neo/3760650?api_key=iIulBulltgU6a56xZRHN4H3l9WmuAYTsLGpBGhQ2"
    },
    "id": "3760650",
    "neo_reference_id": "3760650",
    "name": "(2016 TZ18)",
    "designation": "2016 TZ18",
    "nasa_jpl_url": "http://ssd.jpl.nasa.gov/sbdb.cgi?sstr=3760650",
    "absolute_magnitude_h": 25.0,
    "estimated_diameter": {
        "kilometers": {
            "estimated_diameter_min": 0.02658,
            "estimated_diameter_max": 0.0594346868
        },
        "meters": {
            "estimated_diameter_min": 26.58,
            "estimated_diameter_max": 59.4346868419
        },
        "miles": {
            "estimated_diameter_min": 0.0165160412,
            "estimated_diameter_max": 0.0369309908
        },
        "feet": {
            "estimated_diameter_min": 87.2047272,
            "estimated_diameter_max": 194.9956979785
        }
    },
    "is_potentially_hazardous_asteroid": false,
    "close_approach_data": [
        {
            "close_approach_date": "2016-10-07",
            "close_approach_date_full": "2016-Oct-07 10:42",
            "epoch_date_close_approach": 1475836920000,
            "relative_velocity": {
                "kilometers_per_second": "7.6414907886",
                "kilometers_per_hour": "27509.3668391006",
                "miles_per_hour": "17093.2507451067"
            },
            "miss_distance": {
                "astronomical": "0.0865275007",
                "lunar": "33.6591977723",
                "kilometers": "12944329.801143509",
                "miles": "8043233.5687340642"
            },
            "orbiting_body": "Earth"
        }
    ],
    "orbital_data": {
        "orbit_id": "8",
        "orbit_determination_date": "2017-04-06 08:23:10",
        "first_observation_date": "2016-10-02",
        "last_observation_date": "2016-11-02",
        "data_arc_in_days": 31,
        "observations_used": 56,
        "orbit_uncertainty": "7",
        "minimum_orbit_intersection": ".0923577",
        "jupiter_tisserand_invariant": "3.223",
        "epoch_osculation": "2459000.5",
        "eccentricity": ".5620120917732664",
        "semi_major_axis": "2.488507718547855",
        "inclination": "8.328426368669566",
        "ascending_node_longitude": "19.5629353810667",
        "orbital_period": "1433.86054652257",
        "perihelion_distance": "1.089936290252856",
        "perihelion_argument": "353.7599604961518",
        "aphelion_distance": "3.887079146842855",
        "perihelion_time": "2459099.772576324596",
        "mean_anomaly": "335.0755904655252",
        "mean_motion": ".2510704411758033",
        "equinox": "J2000",
        "orbit_class": {
            "orbit_class_type": "AMO",
            "orbit_class_description": "Near-Earth asteroid orbits similar to that of 1221 Amor",
            "orbit_class_range": "1.017 AU < q (perihelion) < 1.3 AU"
        }
    },
    "is_sentry_object": false
}